[{"OBJECT_NAME":"SPAWAR-CAL-O","OBJECT_ID":"2018-099J","EPOCH":"2026-03-09T17:45:15.080832","MEAN_MOTION":15.31356755,"ECCENTRICITY":0.00072392,"INCLINATION":97.4452,"RA_OF_ASC_NODE":132.0993,"ARG_OF_PERICENTER":285.067,"MEAN_ANOMALY":74.977,"EPHEMERIS_TYPE":0,"CLASSIFICATION_TYPE":"U","NORAD_CAT_ID":43766,"ELEMENT_SET_NO":999,"REV_AT_EPOCH":39828,"BSTAR":0.00069663212,"MEAN_MOTION_DOT":0.00021069,"MEAN_MOTION_DDOT":0},{"OBJECT_NAME":"STARLINK-36121","OBJECT_ID":"2025-286R","EPOCH":"2026-03-09T04:53:25.731456","MEAN_MOTION":15.30198288,"ECCENTRICITY":0.00010019,"INCLINATION":53.1624,"RA_OF_ASC_NODE":0.6176,"ARG_OF_PERICENTER":112.7165,"MEAN_ANOMALY":247.3942,"EPHEMERIS_TYPE":0,"CLASSIFICATION_TYPE":"U","NORAD_CAT_ID":66940,"ELEMENT_SET_NO":999,"REV_AT_EPOCH":1534,"BSTAR":0.00061351436,"MEAN_MOTION_DOT":0.00017854,"MEAN_MOTION_DDOT":0}]
